HST                     
1 20580U 90037B   26130.25915319  .00004817  00000+0  15190-3 0  9999
2 20580  28.4759 339.7068 0002199  79.9280 280.1564 15.30342562782750
